STARLINK-31949          
1 59891U 24100G   26068.20680872 -.00005542  00000+0 -19194-3 0  9998
2 59891  42.9998 128.0653 0001478 116.9776 243.1227 15.27593382100981
LUR-1                   
1 60506U 24149AQ  26068.79566301  .00009121  00000+0  32985-3 0  9998
2 60506  97.3790 148.4255 0002777 309.1571  50.9421 15.28658648 86785
